STARLINK-33786          
1 63514U 25071X   26073.83554737  .00014958  00000+0  51643-3 0  9992
2 63514  53.1605 116.2705 0001552  87.7722 272.3456 15.30181327 53175
STARLINK-33796          
1 63515U 25071Y   26073.53100895  .00031760  00000+0  10801-2 0  9992
2 63515  53.1588 117.2156 0001157  76.2387 283.8742 15.30194665 53510
STARLINK-33785          
1 63516U 25071Z   26073.83236951  .00027170  00000+0  92583-3 0  9997
2 63516  53.1592 116.2498 0001288  84.1099 276.0049 15.30210296 53532
STARLINK-33803          
1 63517U 25071AA  26073.53839556  .00036684  00000+0  12444-2 0  9992
2 63517  53.1581 117.2564 0001122  89.4928 270.6201 15.30205614 53518
STARLINK-33807          
1 63518U 25071AB  26073.55476289  .00037948  00000+0  12853-2 0  9993
2 63518  53.1587 119.4984 0001392  92.5490 267.5671 15.30238758 53480
STARLINK-33787          
1 63519U 25071AC  26073.82129122  .00035763  00000+0  12133-2 0  9999
2 63519  53.1576 118.3153 0001407  77.8531 282.2627 15.30212287 53152
STARLINK-11669 [DTC]    
1 63548U 25075A   26073.84112581  .00246675  00000+0  18627-2 0  9998
2 63548  42.9998 122.3194 0001311 289.8297  70.2429 15.70924910 54069
STARLINK-11665 [DTC]    
1 63549U 25075B   26073.61335146  .00310774  00000+0  23313-2 0  9998
2 63549  43.0000 124.0659 0002881  31.6975 328.4066 15.70887732 54021
STARLINK-11667 [DTC]    
1 63550U 25075C   26073.50740882  .00246030  00000+0  18592-2 0  9991
2 63550  43.0032 125.0040 0002368 288.3806  71.6804 15.70909184 54008
STARLINK-11695 [DTC]    
1 63551U 25075D   26073.84205082  .00294481  00000+0  22094-2 0  9992
2 63551  43.0004 122.3260 0002560  54.8600 305.2508 15.70933492 54066
STARLINK-11685 [DTC]    
1 63552U 25075E   26073.85175621  .00372433  00000+0  27640-2 0  9995
2 63552  42.9987 122.4030 0002110  67.2261 292.8830 15.70959820 54065
STARLINK-11697 [DTC]    
1 63553U 25075F   26073.85706327  .00301909  00000+0  22634-2 0  9997
2 63553  43.0003 122.4446 0001601  73.7971 286.3073 15.70929051 54062
STARLINK-11680 [DTC]    
1 63554U 25075G   26073.50210102  .00134301  00000+0  10318-2 0  9997
2 63554  43.0006 124.9581 0000851 253.4341 106.6434 15.70875936 54008
STARLINK-11687 [DTC]    
1 63555U 25075H   26073.91668981  .00439383  82600-4  12279-2 0  9992
2 63555  42.9905 119.4889 0009556  80.8861 207.2102 15.92765427  6032
STARLINK-11626 [DTC]    
1 63556U 25075J   26073.91668981 -.00249217  00000+0 -19877-2 0  9990
2 63556  43.0009 122.6833 0001466 260.1987 197.0475 15.70955060  6038
STARLINK-11668 [DTC]    
1 63557U 25075K   26073.83065000  .00264727  00000+0  19966-2 0  9995
2 63557  43.0003 123.1253 0002673  59.0920 301.0210 15.70898183 54059
STARLINK-11657 [DTC]    
1 63558U 25075L   26073.56037131  .00192208  00000+0  14636-2 0  9993
2 63558  43.0015 124.5307 0001854 282.9140  77.1521 15.70896366 54012
STARLINK-11606 [DTC]    
1 63559U 25075M   26073.84644680  .00251878  00000+0  19016-2 0  9994
2 63559  43.0003 122.3566 0002201  65.7202 294.3896 15.70913852 54069
STARLINK-11592 [DTC]    
1 63560U 25075N   26073.48086539  .00229504  00000+0  17337-2 0  9994
2 63560  43.0005 124.7832 0002708 259.7321 100.3242 15.70968795 54005
STARLINK-32953          
1 63561U 25075P   26073.51702124  .00033222  00000+0  12101-2 0  9998
2 63561  42.9990 243.5415 0000981 211.0775 149.0019 15.27614323 52668
STARLINK-32951          
1 63562U 25075Q   26073.51316194  .00035560  00000+0  12944-2 0  9999
2 63562  42.9973 243.4864 0001177 212.3595 147.7184 15.27607167 52676
STARLINK-32958          
1 63563U 25075R   26073.82981629  .00041067  00000+0  14920-2 0  9990
2 63563  42.9987 241.5917 0001807 275.6775  84.3870 15.27613950 52712
STARLINK-32928          
1 63564U 25075S   26073.81310966  .00045556  00000+0  16541-2 0  9998
2 63564  42.9988 241.4649 0001953 266.8469  93.2159 15.27592768 52722
STARLINK-32687          
1 63565U 25075T   26073.83880702  .00026080  00000+0  95337-3 0  9993
2 63565  43.0008 241.6342 0001555 272.0427  88.0247 15.27598641 52727
STARLINK-32950          
1 63566U 25075U   26073.80796307  .00035769  00000+0  13021-2 0  9991
2 63566  42.9991 241.3654 0001678 266.2137  93.8522 15.27602407 52714
STARLINK-32954          
1 63567U 25075V   26073.88619466  .00052249  00000+0  18893-2 0  9994
2 63567  43.0003 241.1250 0001618 270.8217  89.2449 15.27675236 52723
STARLINK-32940          
1 63568U 25075W   26073.82595472  .00032796  00000+0  11944-2 0  9994
2 63568  42.9987 241.5353 0000844 228.3625 131.7154 15.27623108 52718
STARLINK-32959          
1 63569U 25076A   26073.91028912  .00029258  00000+0  10683-2 0  9994
2 63569  42.9933 296.1887 0001960 264.5150  95.5478 15.27585659 52582
STARLINK-32956          
1 63570U 25076B   26073.91785254  .00023817  00000+0  87195-3 0  9993
2 63570  42.9994 295.3834 0001321 276.8907  83.1795 15.27589883 52589
