OBJECT_NAME,OBJECT_ID,EPOCH,MEAN_MOTION,ECCENTRICITY,INCLINATION,RA_OF_ASC_NODE,ARG_OF_PERICENTER,MEAN_ANOMALY,EPHEMERIS_TYPE,CLASSIFICATION_TYPE,NORAD_CAT_ID,ELEMENT_SET_NO,REV_AT_EPOCH,BSTAR,MEAN_MOTION_DOT,MEAN_MOTION_DDOT
STARLINK-33786,2025-071X,2026-03-14T20:03:11.292768,15.30181327,.00015529,53.1605,116.2705,87.7722,272.3456,0,U,63514,999,5317,.51642665E-3,.14958E-3,0
STARLINK-33796,2025-071Y,2026-03-14T12:44:39.173280,15.30194665,.00011577,53.1588,117.2156,76.2387,283.8742,0,U,63515,999,5351,.10800541E-2,.3176E-3,0
STARLINK-33785,2025-071Z,2026-03-14T19:58:36.725664,15.30210296,.00012882,53.1592,116.2498,84.1099,276.0049,0,U,63516,999,5353,.92582741E-3,.2717E-3,0
STARLINK-33803,2025-071AA,2026-03-14T12:55:17.376384,15.30205614,.00011225,53.1581,117.2564,89.4928,270.6201,0,U,63517,999,5351,.12443552E-2,.36684E-3,0
STARLINK-33807,2025-071AB,2026-03-14T13:18:51.513696,15.30238758,.00013928,53.1587,119.4984,92.5490,267.5671,0,U,63518,999,5348,.12852929E-2,.37948E-3,0
STARLINK-33787,2025-071AC,2026-03-14T19:42:39.561408,15.30212287,.00014077,53.1576,118.3153,77.8531,282.2627,0,U,63519,999,5315,.12133279E-2,.35763E-3,0
STARLINK-11669 [DTC],2025-075A,2026-03-14T20:11:13.269984,15.70924910,.00013118,42.9998,122.3194,289.8297,70.2429,0,U,63548,999,5406,.18627498E-2,.246675E-2,0
STARLINK-11665 [DTC],2025-075B,2026-03-14T14:43:13.566144,15.70887732,.00028817,43.0000,124.0659,31.6975,328.4066,0,U,63549,999,5402,.23312517E-2,.310774E-2,0
STARLINK-11667 [DTC],2025-075C,2026-03-14T12:10:40.122048,15.70909184,.0002368,43.0032,125.0040,288.3806,71.6804,0,U,63550,999,5400,.18592233E-2,.24603E-2,0
STARLINK-11695 [DTC],2025-075D,2026-03-14T20:12:33.190848,15.70933492,.00025609,43.0004,122.3260,54.8600,305.2508,0,U,63551,999,5406,.22093793E-2,.294481E-2,0
STARLINK-11685 [DTC],2025-075E,2026-03-14T20:26:31.736544,15.70959820,.00021101,42.9987,122.4030,67.2261,292.8830,0,U,63552,999,5406,.27639551E-2,.372433E-2,0
STARLINK-11697 [DTC],2025-075F,2026-03-14T20:34:10.266528,15.70929051,.00016013,43.0003,122.4446,73.7971,286.3073,0,U,63553,999,5406,.2263446E-2,.301909E-2,0
STARLINK-11680 [DTC],2025-075G,2026-03-14T12:03:01.528128,15.70875936,.00008514,43.0006,124.9581,253.4341,106.6434,0,U,63554,999,5400,.10317612E-2,.134301E-2,0
STARLINK-11687 [DTC],2025-075H,2026-03-14T22:00:01.999584,15.92765427,.00095561,42.9905,119.4889,80.8861,207.2102,0,U,63555,999,603,.12279237E-2,.439383E-2,.82600127E-4
STARLINK-11626 [DTC],2025-075J,2026-03-14T22:00:01.999584,15.70955060,.00014666,43.0009,122.6833,260.1987,197.0475,0,U,63556,999,603,-.19877143E-2,-.249217E-2,0
STARLINK-11668 [DTC],2025-075K,2026-03-14T19:56:08.160000,15.70898183,.00026731,43.0003,123.1253,59.0920,301.0210,0,U,63557,999,5405,.19966038E-2,.264727E-2,0
STARLINK-11657 [DTC],2025-075L,2026-03-14T13:26:56.081184,15.70896366,.00018547,43.0015,124.5307,282.9140,77.1521,0,U,63558,999,5401,.14635626E-2,.192208E-2,0
STARLINK-11606 [DTC],2025-075M,2026-03-14T20:18:53.003520,15.70913852,.00022014,43.0003,122.3566,65.7202,294.3896,0,U,63559,999,5406,.19016206E-2,.251878E-2,0
STARLINK-11592 [DTC],2025-075N,2026-03-14T11:32:26.769696,15.70968795,.00027082,43.0005,124.7832,259.7321,100.3242,0,U,63560,999,5400,.17336533E-2,.229504E-2,0
STARLINK-32953,2025-075P,2026-03-14T12:24:30.635136,15.27614323,.00009819,42.9990,243.5415,211.0775,149.0019,0,U,63561,999,5266,.12101044E-2,.33222E-3,0
STARLINK-32951,2025-075Q,2026-03-14T12:18:57.191616,15.27607167,.00011772,42.9973,243.4864,212.3595,147.7184,0,U,63562,999,5267,.1294448E-2,.3556E-3,0
STARLINK-32958,2025-075R,2026-03-14T19:54:56.127456,15.27613950,.0001807,42.9987,241.5917,275.6775,84.3870,0,U,63563,999,5271,.14920173E-2,.41067E-3,0
STARLINK-32928,2025-075S,2026-03-14T19:30:52.674624,15.27592768,.00019535,42.9988,241.4649,266.8469,93.2159,0,U,63564,999,5272,.1654121E-2,.45556E-3,0
STARLINK-32687,2025-075T,2026-03-14T20:07:52.926528,15.27598641,.00015551,43.0008,241.6342,272.0427,88.0247,0,U,63565,999,5272,.95336966E-3,.2608E-3,0
STARLINK-32950,2025-075U,2026-03-14T19:23:28.009248,15.27602407,.0001678,42.9991,241.3654,266.2137,93.8522,0,U,63566,999,5271,.13021455E-2,.35769E-3,0
STARLINK-32954,2025-075V,2026-03-14T21:16:07.218624,15.27675236,.00016181,43.0003,241.1250,270.8217,89.2449,0,U,63567,999,5272,.18892937E-2,.52249E-3,0
STARLINK-32940,2025-075W,2026-03-14T19:49:22.487808,15.27623108,.00008441,42.9987,241.5353,228.3625,131.7154,0,U,63568,999,5271,.1194445E-2,.32796E-3,0
STARLINK-32959,2025-076A,2026-03-14T21:50:48.979968,15.27585659,.00019602,42.9933,296.1887,264.5150,95.5478,0,U,63569,999,5258,.10683242E-2,.29258E-3,0
STARLINK-32956,2025-076B,2026-03-14T22:01:42.459456,15.27589883,.00013218,42.9994,295.3834,276.8907,83.1795,0,U,63570,999,5258,.87194585E-3,.23817E-3,0
